GLOBALSTAR M063         
1 26081U 00008A   24345.91499660 -.00000011  00000+0  10472-2 0  9995
2 26081  51.9948 247.4129 0004575 323.1466 139.5326 11.86166287135239
GLOBALSTAR M062         
1 26082U 00008B   24345.86411090 -.00000077  00000+0  15241-3 0  9993
2 26082  51.9856 289.5795 0007534  67.9449 339.6921 12.43453180473195
GLOBALSTAR M060         
1 26083U 00008C   24345.90940637  .00000041  00000+0  13094-2 0  9996
2 26083  52.0002 222.8185 0004435  93.7369 280.5111 12.17650669129431
GLOBALSTAR M065         
1 31571U 07020A   24345.82713330  .00000066  00000+0  94906-3 0  9993
2 31571  51.9900  79.5679 0009750 244.1429 269.2430 12.61983258809629
GLOBALSTAR M069         
1 31573U 07020C   24345.57061317 -.00000059  00000+0  26641-3 0  9992
2 31573  51.9968  39.5190 0000954 127.2052  20.4669 12.53306575810668
GLOBALSTAR M072         
1 31574U 07020D   24345.91513198 -.00000084  00000+0  93163-4 0  9992
2 31574  52.0063 136.3917 0001248 100.5403  65.2851 12.34773446808954
GLOBALSTAR M071         
1 31576U 07020F   24345.67788993 -.00000053  00000+0  29786-3 0  9999
2 31576  52.0086  41.1589 0000499  73.5050  69.4835 12.56567665471922
